[{"OBJECT_NAME":"QIANFAN-60","OBJECT_ID":"2025-016F","EPOCH":"2026-03-09T22:52:30.176256","MEAN_MOTION":13.51009615,"ECCENTRICITY":0.00179638,"INCLINATION":88.9667,"RA_OF_ASC_NODE":94.0315,"ARG_OF_PERICENTER":92.0589,"MEAN_ANOMALY":268.262,"EPHEMERIS_TYPE":0,"CLASSIFICATION_TYPE":"U","NORAD_CAT_ID":62790,"ELEMENT_SET_NO":999,"REV_AT_EPOCH":5900,"BSTAR":4.4136125e-5,"MEAN_MOTION_DOT":4.1e-7,"MEAN_MOTION_DDOT":0},{"OBJECT_NAME":"SCOUT A DEB","OBJECT_ID":"1966-076D","EPOCH":"2026-03-08T13:49:50.492640","MEAN_MOTION":13.36541067,"ECCENTRICITY":0.00873976,"INCLINATION":88.5575,"RA_OF_ASC_NODE":272.131,"ARG_OF_PERICENTER":198.6525,"MEAN_ANOMALY":218.3105,"EPHEMERIS_TYPE":0,"CLASSIFICATION_TYPE":"U","NORAD_CAT_ID":2702,"ELEMENT_SET_NO":999,"REV_AT_EPOCH":88289,"BSTAR":0.00031133788,"MEAN_MOTION_DOT":1.76e-6,"MEAN_MOTION_DDOT":0}]
